APRIZESAT 4             
1 35684U 09041D   23248.56164247  .00000893  00000+0  12205-3 0  9996
2 35684  98.2792 281.9392 0046043   4.3461 355.8140 14.80542986760909
APRIZESAT 3             
1 35686U 09041F   23249.08925803  .00002439  00000+0  25075-3 0  9996
2 35686  98.1017 350.7849 0070317 167.3688 192.9312 14.89515072764959
AISSAT 1                
1 36797U 10035C   23248.82429300  .00001795  00000+0  19638-3 0  9999
2 36797  98.2205  94.6195 0011076 152.8977 207.2819 14.89126005712801
S-NET D                 
1 43186U 18014G   23248.52627037  .00003183  00000+0  25330-3 0  9997
2 43186  97.6148 150.7806 0012176 265.8032  94.1801 15.01057739305604
S-NET B                 
1 43187U 18014H   23248.19437250  .00003337  00000+0  26533-3 0  9994
2 43187  97.6151 150.3808 0012583 265.5363  94.4423 15.01052126305555
S-NET A                 
1 43188U 18014J   23248.12769398  .00003318  00000+0  26379-3 0  9996
2 43188  97.6156 150.4089 0012575 265.8061  94.1726 15.01054136305547
S-NET C                 
1 43189U 18014K   23248.53033236  .00003252  00000+0  25863-3 0  9991
2 43189  97.6162 150.6902 0013286 260.1147  99.8578 15.01051945304152
SALSAT                  
1 46495U 20068K   23248.53618666  .00004552  00000+0  29533-3 0  9994
2 46495  97.7754 197.4557 0014476 200.2136 159.8521 15.08518352161189
